[{"OBJECT_NAME":"VIZARD-METEO (RS38S)","OBJECT_ID":"2023-091Z","EPOCH":"2026-03-09T23:01:09.168960","MEAN_MOTION":15.32764799,"ECCENTRICITY":0.00087615,"INCLINATION":97.5192,"RA_OF_ASC_NODE":136.6522,"ARG_OF_PERICENTER":71.7666,"MEAN_ANOMALY":288.4529,"EPHEMERIS_TYPE":0,"CLASSIFICATION_TYPE":"U","NORAD_CAT_ID":57189,"ELEMENT_SET_NO":999,"REV_AT_EPOCH":14947,"BSTAR":0.00066106249,"MEAN_MOTION_DOT":0.00020895,"MEAN_MOTION_DDOT":0},{"OBJECT_NAME":"STARLINK-35752","OBJECT_ID":"2025-247L","EPOCH":"2026-03-09T15:12:29.618496","MEAN_MOTION":15.30193397,"ECCENTRICITY":0.000129,"INCLINATION":53.1577,"RA_OF_ASC_NODE":191.8054,"ARG_OF_PERICENTER":62.6386,"MEAN_ANOMALY":297.4746,"EPHEMERIS_TYPE":0,"CLASSIFICATION_TYPE":"U","NORAD_CAT_ID":66275,"ELEMENT_SET_NO":999,"REV_AT_EPOCH":2102,"BSTAR":0.0012356,"MEAN_MOTION_DOT":0.00036408,"MEAN_MOTION_DDOT":0}]
